[{"OBJECT_NAME":"NEE-02 KRYSAOR","OBJECT_ID":"2013-066AB","EPOCH":"2026-03-09T09:04:24.249216","MEAN_MOTION":14.86160783,"ECCENTRICITY":0.006776,"INCLINATION":97.8816,"RA_OF_ASC_NODE":8.3817,"ARG_OF_PERICENTER":38.0821,"MEAN_ANOMALY":322.5155,"EPHEMERIS_TYPE":0,"CLASSIFICATION_TYPE":"U","NORAD_CAT_ID":39441,"ELEMENT_SET_NO":999,"REV_AT_EPOCH":66137,"BSTAR":0.00046918892,"MEAN_MOTION_DOT":4.234e-5,"MEAN_MOTION_DDOT":0},{"OBJECT_NAME":"FENGYUN 1C DEB","OBJECT_ID":"1999-025CRT","EPOCH":"2026-03-08T05:25:55.615296","MEAN_MOTION":14.72591337,"ECCENTRICITY":0.01689255,"INCLINATION":99.0682,"RA_OF_ASC_NODE":62.2268,"ARG_OF_PERICENTER":58.082,"MEAN_ANOMALY":303.669,"EPHEMERIS_TYPE":0,"CLASSIFICATION_TYPE":"U","NORAD_CAT_ID":32125,"ELEMENT_SET_NO":999,"REV_AT_EPOCH":71780,"BSTAR":0.003714293,"MEAN_MOTION_DOT":0.00029682,"MEAN_MOTION_DDOT":0}]
